{"type": "FeatureCollection", "features": [ {"type": "Feature", "properties": {"norad_id": 66697, "name": "IRIDE FM3", "group": "last-30-days", "lat": -35.44987696005132, "lon": 73.4312576323387, "alt_km": 518.5376463877692, "timestamp": "2025-12-22T11:33:19.154207+00:00", "meta": {"OBJECT_NAME": "IRIDE FM3", "OBJECT_ID": "2025-276AH", "EPOCH": "2025-12-22T03:48:12.040416", "MEAN_MOTION": 15.18149151, "ECCENTRICITY": 0.0001151, "INCLINATION": 97.4393, "RA_OF_ASC_NODE": 67.7757, "ARG_OF_PERICENTER": 158.7612, "MEAN_ANOMALY": 201.367, "EPHEMERIS_TYPE": 0, "CLASSIFICATION_TYPE": "U", "NORAD_CAT_ID": 66697, "ELEMENT_SET_NO": 999, "REV_AT_EPOCH": 355, "BSTAR": 0.00057776, "MEAN_MOTION_DOT": 0.0001174, "MEAN_MOTION_DDOT": 0}, "tle": {"line1": "1 66697U 25276AH  25356.15847269  .00011740  00000+0  57776-3 0  9996", "line2": "2 66697  97.4393  67.7757 0001151 158.7612 201.3670 15.18149151  3556"}}, "geometry": {"type": "Point", "coordinates": [73.4312576323387, -35.44987696005132]}}, {"type": "Feature", "properties": {"norad_id": 66698, "name": "IRIDE FM4", "group": "last-30-days", "lat": -74.297463153186, "lon": -139.63076356412216, "alt_km": 518.1749087072867, "timestamp": "2025-12-22T11:33:19.154218+00:00", "meta": {"OBJECT_NAME": "IRIDE FM4", "OBJECT_ID": "2025-276AJ", "EPOCH": "2025-12-22T02:30:58.381632", "MEAN_MOTION": 15.1736515, "ECCENTRICITY": 0.0004699, "INCLINATION": 97.4392, "RA_OF_ASC_NODE": 67.6949, "ARG_OF_PERICENTER": 285.5539, "MEAN_ANOMALY": 74.5176, "EPHEMERIS_TYPE": 0, "CLASSIFICATION_TYPE": "U", "NORAD_CAT_ID": 66698, "ELEMENT_SET_NO": 999, "REV_AT_EPOCH": 354, "BSTAR": 0.0023117, "MEAN_MOTION_DOT": 0.00046357, "MEAN_MOTION_DDOT": 0}, "tle": {"line1": "1 66698U 25276AJ  25356.10484238  .00046357  00000+0  23117-2 0  9998", "line2": "2 66698  97.4392  67.6949 0004699 285.5539  74.5176 15.17365150  3543"}}, "geometry": {"type": "Point", "coordinates": [-139.63076356412216, -74.297463153186]}}, {"type": "Feature", "properties": {"norad_id": 66699, "name": "IRIDE FM5", "group": "last-30-days", "lat": -70.39737270232544, "lon": -133.46466748811832, "alt_km": 526.551746037263, "timestamp": "2025-12-22T11:33:19.154231+00:00", "meta": {"OBJECT_NAME": "IRIDE FM5", "OBJECT_ID": "2025-276AK", "EPOCH": "2025-12-22T02:31:17.978880", "MEAN_MOTION": 15.15481481, "ECCENTRICITY": 0.0004199, "INCLINATION": 97.4418, "RA_OF_ASC_NODE": 67.699, "ARG_OF_PERICENTER": 267.7607, "MEAN_ANOMALY": 92.3144, "EPHEMERIS_TYPE": 0, "CLASSIFICATION_TYPE": "U", "NORAD_CAT_ID": 66699, "ELEMENT_SET_NO": 999, "REV_AT_EPOCH": 354, "BSTAR": -0.056174, "MEAN_MOTION_DOT": -0.00979316, "MEAN_MOTION_DDOT": 0}, "tle": {"line1": "1 66699U 25276AK  25356.10506920 -.00979316  00000+0 -56174-1 0  9992", "line2": "2 66699  97.4418  67.6990 0004199 267.7607  92.3144 15.15481481  3549"}}, "geometry": {"type": "Point", "coordinates": [-133.46466748811832, -70.39737270232544]}}, {"type": "Feature", "properties": {"norad_id": 66700, "name": "IRIDE FM6", "group": "last-30-days", "lat": -32.13511576731782, "lon": 72.81491597619292, "alt_km": 518.4433002889909, "timestamp": "2025-12-22T11:33:19.154241+00:00", "meta": {"OBJECT_NAME": "IRIDE FM6", "OBJECT_ID": "2025-276AL", "EPOCH": "2025-12-22T02:12:25.369056", "MEAN_MOTION": 15.18202434, "ECCENTRICITY": 0.0001559, "INCLINATION": 97.4426, "RA_OF_ASC_NODE": 67.7216, "ARG_OF_PERICENTER": 165.1354, "MEAN_ANOMALY": 194.9926, "EPHEMERIS_TYPE": 0, "CLASSIFICATION_TYPE": "U", "NORAD_CAT_ID": 66700, "ELEMENT_SET_NO": 999, "REV_AT_EPOCH": 354, "BSTAR": 0.0005656, "MEAN_MOTION_DOT": 0.00011509, "MEAN_MOTION_DDOT": 0}, "tle": {"line1": "1 66700U 25276AL  25356.09196029  .00011509  00000+0  56560-3 0  9998", "line2": "2 66700  97.4426  67.7216 0001559 165.1354 194.9926 15.18202434  3549"}}, "geometry": {"type": "Point", "coordinates": [72.81491597619292, -32.13511576731782]}}, {"type": "Feature", "properties": {"norad_id": 66701, "name": "IRIDE FM7", "group": "last-30-days", "lat": -75.07539748801555, "lon": -141.29469477711817, "alt_km": 519.0534435652553, "timestamp": "2025-12-22T11:33:19.154253+00:00", "meta": {"OBJECT_NAME": "IRIDE FM7", "OBJECT_ID": "2025-276AM", "EPOCH": "2025-12-22T02:30:44.611200", "MEAN_MOTION": 15.17366363, "ECCENTRICITY": 0.0002992, "INCLINATION": 97.4425, "RA_OF_ASC_NODE": 67.7049, "ARG_OF_PERICENTER": 260.0923, "MEAN_ANOMALY": 99.9973, "EPHEMERIS_TYPE": 0, "CLASSIFICATION_TYPE": "U", "NORAD_CAT_ID": 66701, "ELEMENT_SET_NO": 999, "REV_AT_EPOCH": 354, "BSTAR": 0.0005946, "MEAN_MOTION_DOT": 0.00011817, "MEAN_MOTION_DDOT": 0}, "tle": {"line1": "1 66701U 25276AM  25356.10468300  .00011817  00000+0  59460-3 0  9999", "line2": "2 66701  97.4425  67.7049 0002992 260.0923  99.9973 15.17366363  3549"}}, "geometry": {"type": "Point", "coordinates": [-141.29469477711817, -75.07539748801555]}}, {"type": "Feature", "properties": {"norad_id": 66702, "name": "IRIDE FM8", "group": "last-30-days", "lat": -75.88631413427316, "lon": -143.24736990659136, "alt_km": 519.1628023826788, "timestamp": "2025-12-22T11:33:19.154263+00:00", "meta": {"OBJECT_NAME": "IRIDE FM8", "OBJECT_ID": "2025-276AN", "EPOCH": "2025-12-22T02:30:29.708064", "MEAN_MOTION": 15.17373991, "ECCENTRICITY": 0.0002844, "INCLINATION": 97.4403, "RA_OF_ASC_NODE": 67.6977, "ARG_OF_PERICENTER": 268.1844, "MEAN_ANOMALY": 91.9063, "EPHEMERIS_TYPE": 0, "CLASSIFICATION_TYPE": "U", "NORAD_CAT_ID": 66702, "ELEMENT_SET_NO": 999, "REV_AT_EPOCH": 354, "BSTAR": 0.00053229, "MEAN_MOTION_DOT": 0.00010572, "MEAN_MOTION_DDOT": 0}, "tle": {"line1": "1 66702U 25276AN  25356.10451051  .00010572  00000+0  53229-3 0  9999", "line2": "2 66702  97.4403  67.6977 0002844 268.1844  91.9063 15.17373991  3549"}}, "geometry": {"type": "Point", "coordinates": [-143.24736990659136, -75.88631413427316]}}, {"type": "Feature", "properties": {"norad_id": 66703, "name": "PELICAN-6", "group": "last-30-days", "lat": -81.07472115628217, "lon": -168.24880047973164, "alt_km": 520.6276916480219, "timestamp": "2025-12-22T11:33:19.154274+00:00", "meta": {"OBJECT_NAME": "PELICAN-6", "OBJECT_ID": "2025-276AP", "EPOCH": "2025-12-22T04:00:01.998720", "MEAN_MOTION": 15.17309176, "ECCENTRICITY": 9.26e-05, "INCLINATION": 97.4407, "RA_OF_ASC_NODE": 67.7644, "ARG_OF_PERICENTER": 252.8025, "MEAN_ANOMALY": 93.889, "EPHEMERIS_TYPE": 0, "CLASSIFICATION_TYPE": "U", "NORAD_CAT_ID": 66703, "ELEMENT_SET_NO": 999, "REV_AT_EPOCH": 469, "BSTAR": 0.002356, "MEAN_MOTION_DOT": 0.00047165, "MEAN_MOTION_DDOT": 0}, "tle": {"line1": "1 66703U 25276AP  25356.16668980  .00047165  00000+0  23560-2 0  9999", "line2": "2 66703  97.4407  67.7644 0000926 252.8025  93.8890 15.17309176  4696"}}, "geometry": {"type": "Point", "coordinates": [-168.24880047973164, -81.07472115628217]}}, {"type": "Feature", "properties": {"norad_id": 66704, "name": "FLOCK 4H-1", "group": "last-30-days", "lat": -39.7538833364829, "lon": 74.32605276923844, "alt_km": 519.2674523391415, "timestamp": "2025-12-22T11:33:19.154284+00:00", "meta": {"OBJECT_NAME": "FLOCK 4H-1", "OBJECT_ID": "2025-276AQ", "EPOCH": "2025-12-22T03:49:19.772832", "MEAN_MOTION": 15.1807014, "ECCENTRICITY": 0.0001817, "INCLINATION": 97.4387, "RA_OF_ASC_NODE": 67.7701, "ARG_OF_PERICENTER": 174.3987, "MEAN_ANOMALY": 185.7267, "EPHEMERIS_TYPE": 0, "CLASSIFICATION_TYPE": "U", "NORAD_CAT_ID": 66704, "ELEMENT_SET_NO": 999, "REV_AT_EPOCH": 355, "BSTAR": 0.00050199, "MEAN_MOTION_DOT": 0.00010167, "MEAN_MOTION_DDOT": 0}, "tle": {"line1": "1 66704U 25276AQ  25356.15925663  .00010167  00000+0  50199-3 0  9994", "line2": "2 66704  97.4387  67.7701 0001817 174.3987 185.7267 15.18070140  3553"}}, "geometry": {"type": "Point", "coordinates": [74.32605276923844, -39.7538833364829]}}, {"type": "Feature", "properties": {"norad_id": 66705, "name": "FLOCK 4H-2", "group": "last-30-days", "lat": -37.32989205626699, "lon": 73.80596314217249, "alt_km": 518.7253288187167, "timestamp": "2025-12-22T11:33:19.154304+00:00", "meta": {"OBJECT_NAME": "FLOCK 4H-2", "OBJECT_ID": "2025-276AR", "EPOCH": "2025-12-22T03:48:41.685120", "MEAN_MOTION": 15.18120697, "ECCENTRICITY": 0.0001189, "INCLINATION": 97.4381, "RA_OF_ASC_NODE": 67.7708, "ARG_OF_PERICENTER": 163.1053, "MEAN_ANOMALY": 197.0221, "EPHEMERIS_TYPE": 0, "CLASSIFICATION_TYPE": "U", "NORAD_CAT_ID": 66705, "ELEMENT_SET_NO": 999, "REV_AT_EPOCH": 355, "BSTAR": 0.00048207, "MEAN_MOTION_DOT": 9.774e-05, "MEAN_MOTION_DDOT": 0}, "tle": {"line1": "1 66705U 25276AR  25356.15881580  .00009774  00000+0  48207-3 0  9993", "line2": "2 66705  97.4381  67.7708 0001189 163.1053 197.0221 15.18120697  3556"}}, "geometry": {"type": "Point", "coordinates": [73.80596314217249, -37.32989205626699]}}, {"type": "Feature", "properties": {"norad_id": 66706, "name": "FLOCK 4H-3", "group": "last-30-days", "lat": -82.45221929816728, "lon": 167.37699647419305, "alt_km": 519.0129346255671, "timestamp": "2025-12-22T11:33:19.154317+00:00", "meta": {"OBJECT_NAME": "FLOCK 4H-3", "OBJECT_ID": "2025-276AS", "EPOCH": "2025-12-21T16:57:56.268000", "MEAN_MOTION": 15.17458741, "ECCENTRICITY": 0.0002864, "INCLINATION": 97.4448, "RA_OF_ASC_NODE": 67.3267, "ARG_OF_PERICENTER": 251.7269, "MEAN_ANOMALY": 108.3653, "EPHEMERIS_TYPE": 0, "CLASSIFICATION_TYPE": "U", "NORAD_CAT_ID": 66706, "ELEMENT_SET_NO": 999, "REV_AT_EPOCH": 348, "BSTAR": 0.00024362, "MEAN_MOTION_DOT": 4.811e-05, "MEAN_MOTION_DDOT": 0}, "tle": {"line1": "1 66706U 25276AS  25355.70690125  .00004811  00000+0  24362-3 0  9990", "line2": "2 66706  97.4448  67.3267 0002864 251.7269 108.3653 15.17458741  3480"}}, "geometry": {"type": "Point", "coordinates": [167.37699647419305, -82.45221929816728]}}]}